      2.10          N: GNSS NAV DATA                        RINEX VERSION / TYPE
fic2rin                                 09/07/2022 00:17:36 PGM / RUN BY / DATE
                                                            END OF HEADER
18 22  9  6 12  0  0.0  .576213933527D-04 -.126192389871D-10  .000000000000D+00
     .189000000000D+03  .190312500000D+02  .464983654150D-08  .223798827948D+01
     .107474625111D-05  .280022027437D-02  .103935599327D-05  .515372724915D+04
     .216000000000D+06 -.558793544769D-07  .746799216168D+00  .134110450745D-06
     .972309909159D+00  .366468750000D+03  .304961471199D+01 -.847392440154D-08
     .157506560780D-09  .100000000000D+01  .222600000000D+04  .000000000000D+00
     .240000000000D+01  .000000000000D+00 -.838190317154D-08  .189000000000D+03
     .208800000000D+06  .400000000000D+01
25 22  9  6 12  0  0.0  .369070563465D-03  .409272615798D-11  .000000000000D+00
     .101000000000D+03  .218437500000D+02  .467448042516D-08  .406280024634D+00
     .966712832451D-06  .105049432022D-01  .843219459057D-05  .515361924744D+04
     .216000000000D+06 -.100582838058D-06 -.137469649436D+01  .894069671631D-07
     .955268511042D+00  .217718750000D+03  .100226379174D+01 -.813676750046D-08
    -.520735976458D-09  .100000000000D+01  .222600000000D+04  .000000000000D+00
     .240000000000D+01  .000000000000D+00  .558793544769D-08  .101000000000D+03
     .208800000000D+06  .400000000000D+01
23 22  9  6 12  0  0.0 -.390368513763D-04 -.909494701773D-12  .000000000000D+00
     .220000000000D+03 -.141187500000D+03  .440839791318D-08  .117606626130D+01
    -.725127756596D-05  .261365470942D-02  .566616654396D-05  .515373297691D+04
     .216000000000D+06  .447034835815D-07  .174670863729D+01 -.186264514923D-07
     .969855239415D+00  .272625000000D+03  .300322668712D+01 -.815748264904D-08
    -.309298597814D-09  .100000000000D+01  .222600000000D+04  .000000000000D+00
     .240000000000D+01  .000000000000D+00 -.838190317154D-08  .476000000000D+03
     .208800000000D+06  .400000000000D+01
14 22  9  6 12  0  0.0 -.105357263237D-03  .238742359215D-11  .000000000000D+00
     .129000000000D+03  .114687500000D+02  .472341103474D-08  .533686281376D+00
     .648200511932D-06  .226427114103D-02  .875256955624D-05  .515365667725D+04
     .216000000000D+06  .465661287308D-07 -.132999544811D+01  .875443220139D-07
     .951126024434D+00  .206500000000D+03 -.303496639915D+01 -.805604985253D-08
    -.401445293236D-09  .100000000000D+01  .222600000000D+04  .000000000000D+00
     .240000000000D+01  .000000000000D+00 -.791624188423D-08  .897000000000D+03
     .208800000000D+06  .400000000000D+01
28 22  9  6 12  0  0.0  .339552294463D-03 -.159161572810D-11  .000000000000D+00
     .740000000000D+02  .278750000000D+02  .426017745349D-08 -.166431714519D+01
     .179186463356D-05  .164891716558D-01  .902451574802D-05  .515366434288D+04
     .216000000000D+06 -.167638063431D-06 -.127358513825D+01  .433996319771D-06
     .966796086069D+00  .211812500000D+03 -.126514183926D+01 -.784568394709D-08
    -.403588239642D-09  .100000000000D+01  .222600000000D+04  .000000000000D+00
     .240000000000D+01  .630000000000D+02 -.111758708954D-07  .740000000000D+02
     .208800000000D+06  .400000000000D+01
2  22  9  6 11 59 44.0 -.646928325295D-03  .125055521494D-11  .000000000000D+00
     .400000000000D+01  .307500000000D+02  .459840582777D-08  .161254499663D+01
     .123679637909D-05  .199725778075D-01  .161118805408D-05  .515488942337D+04
     .215984000000D+06  .301748514175D-06  .648527286039D+00 -.460073351860D-06
     .966490862841D+00  .348437500000D+03 -.139573639576D+01 -.822355682986D-08
     .172150027883D-09  .100000000000D+01  .222600000000D+04  .000000000000D+00
     .240000000000D+01  .000000000000D+00 -.172294676304D-07  .400000000000D+01
     .212970000000D+06  .400000000000D+01
30 22  9  6 11 59 44.0 -.536740757525D-03 -.341060513165D-12  .000000000000D+00
     .100000000000D+02  .180625000000D+02  .534772275412D-08  .119527586785D+01
     .108033418655D-05  .594720360823D-02  .617280602455D-05  .515370789337D+04
     .215984000000D+06 -.726431608200D-07 -.239958345985D+01  .633299350739D-07
     .935803190793D+00  .248562500000D+03 -.265517767483D+01 -.841320758672D-08
     .542879755978D-10  .100000000000D+01  .222600000000D+04  .000000000000D+00
     .240000000000D+01  .000000000000D+00  .372529029846D-08  .100000000000D+02
     .213060000000D+06  .400000000000D+01
2  22  9  6 13 59 44.0 -.646919943392D-03  .125055521494D-11  .000000000000D+00
     .900000000000D+01  .488125000000D+02  .448090093322D-08  .266187968876D+01
     .246055424213D-05  .199711590540D-01  .157579779625D-05  .515489403534D+04
     .223184000000D+06  .350177288055D-06  .648469925021D+00 -.100582838058D-06
     .966492395979D+00  .348156250000D+03 -.139563478586D+01 -.801390523989D-08
     .967897459671D-10  .100000000000D+01  .222600000000D+04  .000000000000D+00
     .240000000000D+01  .000000000000D+00 -.172294676304D-07  .900000000000D+01
     .216000000000D+06  .400000000000D+01
30 22  9  6 13 59 44.0 -.536743085831D-03 -.341060513165D-12  .000000000000D+00
     .130000000000D+02  .224375000000D+02  .539201031316D-08  .224554110170D+01
     .103004276752D-05  .594735378399D-02  .620447099209D-05  .515370675468D+04
     .223184000000D+06 -.135973095894D-06 -.239964423385D+01 -.353902578354D-07
     .935803933956D+00  .248937500000D+03 -.265527625357D+01 -.834106172442D-08
     .105004373854D-09  .100000000000D+01  .222600000000D+04  .000000000000D+00
     .240000000000D+01  .000000000000D+00  .372529029846D-08  .130000000000D+02
     .216000000000D+06  .400000000000D+01
1  22  9  6 14  0  0.0  .288641545922D-03 -.670752342558D-11  .000000000000D+00
     .300000000000D+02  .394375000000D+02  .412945772278D-08  .297677691905D+01
     .182725489140D-05  .120124951936D-01  .111572444439D-05  .515366091156D+04
     .223200000000D+06 -.596046447754D-07  .741911302578D+00 -.182539224625D-06
     .988475263654D+00  .373187500000D+03  .944835339179D+00 -.802176271004D-08
     .200008331150D-09  .100000000000D+01  .222600000000D+04  .000000000000D+00
     .240000000000D+01  .000000000000D+00  .512227416039D-08  .300000000000D+02
     .216000000000D+06  .400000000000D+01
5  22  9  6 14  0  0.0 -.956580042839D-04 -.147792889038D-11  .000000000000D+00
     .460000000000D+02 -.112187500000D+03  .458876256895D-08 -.763346515166D+00
    -.579841434956D-05  .611869920976D-02  .533275306225D-05  .515378390694D+04
     .223200000000D+06 -.745058059692D-07  .173215997112D+01  .987201929092D-07
     .961986413727D+00  .276437500000D+03  .110570627708D+01 -.825891544555D-08
    -.198579700213D-09  .100000000000D+01  .222600000000D+04  .000000000000D+00
     .240000000000D+01  .000000000000D+00 -.111758708954D-07  .460000000000D+02
     .216000000000D+06  .400000000000D+01
3  22  9  6 14  0  0.0 -.346382614225D-03 -.670752342558D-11  .000000000000D+00
     .600000000000D+02 -.144781250000D+03  .416374486526D-08  .186896902117D+01
    -.759400427341D-05  .449296494480D-02  .549294054508D-05  .515356748199D+04
     .223200000000D+06 -.745058059692D-07  .177525663804D+01 -.614672899246D-07
     .974979241650D+00  .281906250000D+03  .105231899381D+01 -.798783272530D-08
    -.197508227010D-09  .100000000000D+01  .222600000000D+04  .000000000000D+00
     .240000000000D+01  .000000000000D+00  .186264514923D-08  .600000000000D+02
     .216000000000D+06  .400000000000D+01
